sat20308
1 20308U 89080G   20046.79212743  .00000625  00000-0  20637-3 0  9999
2 20308  82.6426 222.1974 0957973 348.0468   9.9267 13.00039075417129
